COMMENT,ORIGINATOR,NORAD_CAT_ID,OBJECT_NAME,OBJECT_TYPE,CLASSIFICATION_TYPE,INTLDES,EPOCH,EPOCH_MICROSECONDS,MEAN_MOTION,ECCENTRICITY,INCLINATION,RA_OF_ASC_NODE,ARG_OF_PERICENTER,MEAN_ANOMALY,EPHEMERIS_TYPE,ELEMENT_SET_NO,REV_AT_EPOCH,BSTAR,MEAN_MOTION_DOT,MEAN_MOTION_DDOT,FILE,TLE_LINE0,TLE_LINE1,TLE_LINE2,OBJECT_ID,OBJECT_NUMBER,SEMIMAJOR_AXIS,PERIOD,APOGEE,PERIGEE,DECAYED
"GENERATED VIA SPACETRACK.ORG API","18 SPCS","48890","SPACEBEE-104","PAYLOAD","U","21059M","2022-10-24 08:44:05","145216","15.18575014","0.0008366","97.571","66.5969","25.2254","334.9387","0","999","7347","0.00063174","0.00013013","0","3631022","0 SPACEBEE-104","1 48890U 21059M   22297.36394844  .00013013  00000-0  63174-3 0  9991","2 48890  97.5710  66.5969 0008366  25.2254 334.9387 15.18575014 73479","2021-059M","48890","6888.283","94.826","515.911","504.386","0"
"GENERATED VIA SPACETRACK.ORG API","18 SPCS","48890","SPACEBEE-104","PAYLOAD","U","21059M","2022-10-24 08:44:05","145216","15.18575014","0.0008366","97.571","66.5969","25.2254","334.9387","0","999","7347","0.00063174","0.00013013","0","3631438","0 SPACEBEE-104","1 48890U 21059M   22297.36394844  .00013013  00000-0  63174-3 0  9991","2 48890  97.5710  66.5969 0008366  25.2254 334.9387 15.18575014 73479","2021-059M","48890","6888.283","94.826","515.911","504.386","0"
"GENERATED VIA SPACETRACK.ORG API","18 SPCS","48890","SPACEBEE-104","PAYLOAD","U","21059M","2022-10-25 08:27:21","876192","15.18595539","0.0008319","97.5715","67.5868","21.7668","338.3918","0","999","7362","0.00046023","0.00009463","0","3633075","0 SPACEBEE-104","1 48890U 21059M   22298.35233653  .00009463  00000-0  46023-3 0  9999","2 48890  97.5715  67.5868 0008319  21.7668 338.3918 15.18595539 73620","2021-059M","48890","6888.221","94.824","515.817","504.356","0"
"GENERATED VIA SPACETRACK.ORG API","18 SPCS","48890","SPACEBEE-104","PAYLOAD","U","21059M","2022-10-25 14:46:54","143616","15.18600573","0.0008299","97.5715","67.8507","20.9289","339.2283","0","999","7366","0.00046023","0.00009464","0","3633176","0 SPACEBEE-104","1 48890U 21059M   22298.61590444  .00009464  00000-0  46023-3 0  9993","2 48890  97.5715  67.8507 0008299  20.9289 339.2283 15.18600573 73664","2021-059M","48890","6888.206","94.824","515.788","504.355","0"
"GENERATED VIA SPACETRACK.ORG API","18 SPCS","48890","SPACEBEE-104","PAYLOAD","U","21059M","2022-10-25 19:31:33","273984","15.18605941","0.0008275","97.5715","68.0487","20.2613","339.8948","0","999","7369","0.00048915","0.00010065","0","3633327","0 SPACEBEE-104","1 48890U 21059M   22298.81357956  .00010065  00000-0  48915-3 0  9995","2 48890  97.5715  68.0487 0008275  20.2613 339.8948 15.18605941 73693","2021-059M","48890","6888.190","94.824","515.755","504.355","0"
"GENERATED VIA SPACETRACK.ORG API","18 SPCS","48890","SPACEBEE-104","PAYLOAD","U","21059M","2022-10-26 08:10:37","446816","15.18615138","0.0008237","97.5718","68.5766","18.4692","341.6839","0","999","7377","0.00041128","0.00008452","0","3634846","0 SPACEBEE-104","1 48890U 21059M   22299.34071119  .00008452  00000-0  41128-3 0  9994","2 48890  97.5718  68.5766 0008237  18.4692 341.6839 15.18615138 73773","2021-059M","48890","6888.162","94.823","515.701","504.353","0"
"GENERATED VIA SPACETRACK.ORG API","18 SPCS","48890","SPACEBEE-104","PAYLOAD","U","21059M","2022-10-26 14:30:09","407520","15.18620741","0.0008227","97.5718","68.8405","17.4898","342.6618","0","999","7381","0.00044613","0.00009177","0","3635100","0 SPACEBEE-104","1 48890U 21059M   22299.60427555  .00009177  00000-0  44613-3 0  9999","2 48890  97.5718  68.8405 0008227  17.4898 342.6618 15.18620741 73819","2021-059M","48890","6888.145","94.823","515.677","504.343","0"
"GENERATED VIA SPACETRACK.ORG API","18 SPCS","48890","SPACEBEE-104","PAYLOAD","U","21059M","2022-10-26 22:24:34","236576","15.18628787","0.0008224","97.5717","69.1703","15.9153","344.2337","0","999","7386","0.00048912","0.00010071","0","3635211","0 SPACEBEE-104","1 48890U 21059M   22299.93372959  .00010071  00000-0  48912-3 0  9993","2 48890  97.5717  69.1703 0008224  15.9153 344.2337 15.18628787 73866","2021-059M","48890","6888.121","94.822","515.651","504.321","0"
"GENERATED VIA SPACETRACK.ORG API","18 SPCS","48890","SPACEBEE-104","PAYLOAD","U","21059M","2022-10-27 07:53:51","829440","15.1863929","0.0008198","97.5718","69.5662","14.3757","345.7708","0","999","7392","0.00055461","0.00011434","0","3635758","0 SPACEBEE-104","1 48890U 21059M   22300.32907210  .00011434  00000-0  55461-3 0  9994","2 48890  97.5718  69.5662 0008198  14.3757 345.7708 15.18639290 73924","2021-059M","48890","6888.089","94.822","515.601","504.307","0"
"GENERATED VIA SPACETRACK.ORG API","18 SPCS","48890","SPACEBEE-104","PAYLOAD","U","21059M","2022-10-27 20:32:54","906720","15.18655826","0.000823","97.5717","70.0939","12.257","347.8862","0","999","7400","0.00069442","0.00014347","0","3636022","0 SPACEBEE-104","1 48890U 21059M   22300.85619105  .00014347  00000-0  69442-3 0  9995","2 48890  97.5717  70.0939 0008230  12.2570 347.8862 15.18655826 74001","2021-059M","48890","6888.039","94.821","515.573","504.235","0"
"GENERATED VIA SPACETRACK.ORG API","18 SPCS","48890","SPACEBEE-104","PAYLOAD","U","21059M","2022-10-28 02:52:26","277312","15.18661835","0.0008162","97.5719","70.3581","11.5888","348.5533","0","999","7404","0.00065508","0.00013531","0","3636273","0 SPACEBEE-104","1 48890U 21059M   22301.11974858  .00013531  00000-0  65508-3 0  9997","2 48890  97.5719  70.3581 0008162  11.5888 348.5533 15.18661835 74041","2021-059M","48890","6888.021","94.820","515.508","504.264","0"
"GENERATED VIA SPACETRACK.ORG API","18 SPCS","48890","SPACEBEE-104","PAYLOAD","U","21059M","2022-10-28 07:37:04","732032","15.18667576","0.0008159","97.5719","70.5561","10.9352","349.2057","0","999","7407","0.0006464","0.00013353","0","3636776","0 SPACEBEE-104","1 48890U 21059M   22301.31741588  .00013353  00000-0  64640-3 0  9999","2 48890  97.5719  70.5561 0008159  10.9352 349.2057 15.18667576 74076","2021-059M","48890","6888.004","94.820","515.488","504.249","0"
"GENERATED VIA SPACETRACK.ORG API","18 SPCS","48890","SPACEBEE-104","PAYLOAD","U","21059M","2022-10-29 04:10:30","449856","15.18700042","0.0008134","97.5723","71.414","8.1807","351.9558","0","999","7420","0.00086644","0.0001795","0","3637213","0 SPACEBEE-104","1 48890U 21059M   22302.17396354  .00017950  00000-0  86644-3 0  9996","2 48890  97.5723  71.4140 0008134   8.1807 351.9558 15.18700042 74208","2021-059M","48890","6887.905","94.818","515.373","504.168","0"
"GENERATED VIA SPACETRACK.ORG API","18 SPCS","48890","SPACEBEE-104","PAYLOAD","U","21059M","2022-10-29 07:20:15","815040","15.18704855","0.0008136","97.5723","71.546","7.8481","352.2879","0","999","7422","0.00086249","0.0001787","0","3637424","0 SPACEBEE-104","1 48890U 21059M   22302.30573860  .00017870  00000-0  86249-3 0  9992","2 48890  97.5723  71.5460 0008136   7.8481 352.2879 15.18704855 74228","2021-059M","48890","6887.891","94.818","515.360","504.152","0"
"GENERATED VIA SPACETRACK.ORG API","18 SPCS","48890","SPACEBEE-104","PAYLOAD","U","21059M","2022-10-30 07:03:24","706080","15.18742652","0.0008022","97.5721","72.5358","5.1226","355.0089","0","999","7437","0.00082581","0.00017123","0","3637867","0 SPACEBEE-104","1 48890U 21059M   22303.29403595  .00017123  00000-0  82581-3 0  9994","2 48890  97.5721  72.5358 0008022   5.1226 355.0089 15.18742652 74372","2021-059M","48890","6887.777","94.815","515.167","504.116","0"
"GENERATED VIA SPACETRACK.ORG API","18 SPCS","48890","SPACEBEE-104","PAYLOAD","U","21059M","2022-10-30 21:17:17","49696","15.18765863","0.0008028","97.5719","73.1298","3.1265","357.0018","0","999","7446","0.00086739","0.00018003","0","3637924","0 SPACEBEE-104","1 48890U 21059M   22303.88700289  .00018003  00000-0  86739-3 0  9996","2 48890  97.5719  73.1298 0008028   3.1265 357.0018 15.18765863 74469","2021-059M","48890","6887.706","94.814","515.101","504.042","0"
"GENERATED VIA SPACETRACK.ORG API","18 SPCS","48890","SPACEBEE-104","PAYLOAD","U","21059M","2022-10-31 08:21:23","938272","15.187801","0.000799","97.5719","73.5916","1.5308","358.5949","0","999","7453","0.00076417","0.00015854","0","3638016","0 SPACEBEE-104","1 48890U 21059M   22304.34819373  .00015854  00000-0  76417-3 0  9996","2 48890  97.5719  73.5916 0007990   1.5308 358.5949 15.18780100 74535","2021-059M","48890","6887.663","94.813","515.032","504.025","0"
"GENERATED VIA SPACETRACK.ORG API","18 SPCS","48890","SPACEBEE-104","PAYLOAD","U","21059M","2022-10-31 14:40:53","403744","15.18790208","0.0007978","97.5717","73.8555","0.5837","359.5405","0","999","7457","0.00082938","0.00017221","0","3639522","0 SPACEBEE-104","1 48890U 21059M   22304.61172921  .00017221  00000-0  82938-3 0  9992","2 48890  97.5717  73.8555 0007978   0.5837 359.5405 15.18790208 74579","2021-059M","48890","6887.633","94.812","514.993","504.003","0"
"GENERATED VIA SPACETRACK.ORG API","18 SPCS","48890","SPACEBEE-104","PAYLOAD","U","21059M","2022-11-01 08:04:28","665696","15.18815159","0.0007926","97.5715","74.5813","357.8185","2.3013","0","999","7468","0.00075986","0.0001578","0","3640409","0 SPACEBEE-104","1 48890U 21059M   22305.33644289  .00015780  00000-0  75986-3 0  9996","2 48890  97.5715  74.5813 0007926 357.8185   2.3013 15.18815159 74682","2021-059M","48890","6887.557","94.811","514.881","503.963","0"
"GENERATED VIA SPACETRACK.ORG API","18 SPCS","48890","SPACEBEE-104","PAYLOAD","U","21059M","2022-11-02 03:02:55","55904","15.1884355","0.0007897","97.5713","75.3731","354.5556","5.5591","0","999","7480","0.000813","0.00016905","0","3640685","0 SPACEBEE-104","1 48890U 21059M   22306.12702611  .00016905  00000-0  81300-3 0  9995","2 48890  97.5713  75.3731 0007897 354.5556   5.5591 15.18843550 74807","2021-059M","48890","6887.471","94.809","514.776","503.897","0"
